NOAA 15                 
1 25338U 98030A   19046.82818128  .00000024  00000-0  28881-4 0  9996
2 25338  98.7571  68.2513 0009630 236.6723 123.3535 14.25894890 79482
NOAA 18                 
1 28654U 05018A   19046.94168020  .00000036  00000-0  44549-4 0  9998
2 28654  99.1147  91.9661 0014742 159.8570 200.3185 14.12404259708098
METOP-A                 
1 29499U 06044A   19046.94213285 -.00000006  00000-0  16798-4 0  9993
2 29499  98.5932 103.5091 0001025 150.0650 336.9537 14.21542188639443
NOAA 19                 
1 33591U 09005A   19046.84693393  .00000034  00000-0  43983-4 0  9998
2 33591  99.1707  35.0561 0014099   7.1404 352.9965 14.12334554516301
METOP-B                 
1 38771U 12049A   19046.91230067 -.00000016  00000-0  12952-4 0  9991
2 38771  98.7214 107.8542 0000624  32.5956  54.0731 14.21481041332765
SARAL                   
1 39086U 13009A   19046.89397916 -.00000013  00000-0  11260-4 0  9990
2 39086  98.5392 234.9822 0000301 167.6916 192.4275 14.32031834312223
METOP-C                 
1 43689U 18087A   19046.80136337 -.00000044  00000-0  00000+0 0  9993
2 43689  98.7205 108.0313 0002160 340.8770  19.2333 14.21478848 14314
